[{"OBJECT_NAME":"STARLINK-36247","OBJECT_ID":"2026-054P","EPOCH":"2026-04-05T13:14:03.153696","MEAN_MOTION":15.80955526,"ECCENTRICITY":0.00013182,"INCLINATION":53.1583,"RA_OF_ASC_NODE":177.9502,"ARG_OF_PERICENTER":65.1216,"MEAN_ANOMALY":294.9944,"EPHEMERIS_TYPE":0,"CLASSIFICATION_TYPE":"U","NORAD_CAT_ID":68245,"ELEMENT_SET_NO":999,"REV_AT_EPOCH":302,"BSTAR":0.00046200169,"MEAN_MOTION_DOT":0.0009181,"MEAN_MOTION_DDOT":0},{"OBJECT_NAME":"STARLINK-37043","OBJECT_ID":"2026-054Q","EPOCH":"2026-04-05T13:11:53.556288","MEAN_MOTION":15.80972414,"ECCENTRICITY":0.0001487,"INCLINATION":53.1583,"RA_OF_ASC_NODE":177.9398,"ARG_OF_PERICENTER":77.7091,"MEAN_ANOMALY":282.4098,"EPHEMERIS_TYPE":0,"CLASSIFICATION_TYPE":"U","NORAD_CAT_ID":68246,"ELEMENT_SET_NO":999,"REV_AT_EPOCH":302,"BSTAR":0.00093001449,"MEAN_MOTION_DOT":0.00187761,"MEAN_MOTION_DDOT":0},{"OBJECT_NAME":"STARLINK-37044","OBJECT_ID":"2026-054R","EPOCH":"2026-04-05T14:42:56.171232","MEAN_MOTION":15.81260472,"ECCENTRICITY":0.00017191,"INCLINATION":53.1581,"RA_OF_ASC_NODE":177.6228,"ARG_OF_PERICENTER":35.1642,"MEAN_ANOMALY":324.9495,"EPHEMERIS_TYPE":0,"CLASSIFICATION_TYPE":"U","NORAD_CAT_ID":68247,"ELEMENT_SET_NO":999,"REV_AT_EPOCH":303,"BSTAR":0.0024103431,"MEAN_MOTION_DOT":0.00513495,"MEAN_MOTION_DDOT":0},{"OBJECT_NAME":"STARLINK-36997","OBJECT_ID":"2026-054S","EPOCH":"2026-04-05T13:50:35.789568","MEAN_MOTION":15.75299408,"ECCENTRICITY":0.00017973,"INCLINATION":53.1589,"RA_OF_ASC_NODE":178.1183,"ARG_OF_PERICENTER":56.457,"MEAN_ANOMALY":303.6621,"EPHEMERIS_TYPE":0,"CLASSIFICATION_TYPE":"U","NORAD_CAT_ID":68248,"ELEMENT_SET_NO":999,"REV_AT_EPOCH":302,"BSTAR":0.00058558179,"MEAN_MOTION_DOT":0.00090327,"MEAN_MOTION_DDOT":0},{"OBJECT_NAME":"STARLINK-37141","OBJECT_ID":"2026-054T","EPOCH":"2026-04-05T13:30:59.114880","MEAN_MOTION":15.75304807,"ECCENTRICITY":0.00013122,"INCLINATION":53.1578,"RA_OF_ASC_NODE":178.0279,"ARG_OF_PERICENTER":57.7872,"MEAN_ANOMALY":302.3276,"EPHEMERIS_TYPE":0,"CLASSIFICATION_TYPE":"U","NORAD_CAT_ID":68249,"ELEMENT_SET_NO":999,"REV_AT_EPOCH":302,"BSTAR":0.00070960796,"MEAN_MOTION_DOT":0.00109874,"MEAN_MOTION_DDOT":0},{"OBJECT_NAME":"STARLINK-37087","OBJECT_ID":"2026-054U","EPOCH":"2026-04-05T13:37:59.729952","MEAN_MOTION":15.75303354,"ECCENTRICITY":0.00018957,"INCLINATION":53.1578,"RA_OF_ASC_NODE":178.0601,"ARG_OF_PERICENTER":42.2465,"MEAN_ANOMALY":317.8701,"EPHEMERIS_TYPE":0,"CLASSIFICATION_TYPE":"U","NORAD_CAT_ID":68250,"ELEMENT_SET_NO":999,"REV_AT_EPOCH":302,"BSTAR":0.00079885784,"MEAN_MOTION_DOT":0.00123977,"MEAN_MOTION_DDOT":0},{"OBJECT_NAME":"STARLINK-36274","OBJECT_ID":"2026-054V","EPOCH":"2026-04-05T13:44:31.636896","MEAN_MOTION":15.75298809,"ECCENTRICITY":0.00013088,"INCLINATION":53.1583,"RA_OF_ASC_NODE":178.0904,"ARG_OF_PERICENTER":126.572,"MEAN_ANOMALY":233.5421,"EPHEMERIS_TYPE":0,"CLASSIFICATION_TYPE":"U","NORAD_CAT_ID":68251,"ELEMENT_SET_NO":999,"REV_AT_EPOCH":302,"BSTAR":0.00067257964,"MEAN_MOTION_DOT":0.00104007,"MEAN_MOTION_DDOT":0},{"OBJECT_NAME":"STARLINK-37085","OBJECT_ID":"2026-054W","EPOCH":"2026-04-05T14:36:26.622144","MEAN_MOTION":15.80965107,"ECCENTRICITY":0.00011077,"INCLINATION":53.1585,"RA_OF_ASC_NODE":177.5924,"ARG_OF_PERICENTER":93.4211,"MEAN_ANOMALY":266.6938,"EPHEMERIS_TYPE":0,"CLASSIFICATION_TYPE":"U","NORAD_CAT_ID":68252,"ELEMENT_SET_NO":999,"REV_AT_EPOCH":303,"BSTAR":0.00072495754,"MEAN_MOTION_DOT":0.00145435,"MEAN_MOTION_DDOT":0},{"OBJECT_NAME":"STARLINK-37086","OBJECT_ID":"2026-054X","EPOCH":"2026-04-05T14:35:21.657984","MEAN_MOTION":15.80996567,"ECCENTRICITY":0.00010589,"INCLINATION":53.1582,"RA_OF_ASC_NODE":177.5876,"ARG_OF_PERICENTER":89.7781,"MEAN_ANOMALY":270.3363,"EPHEMERIS_TYPE":0,"CLASSIFICATION_TYPE":"U","NORAD_CAT_ID":68253,"ELEMENT_SET_NO":999,"REV_AT_EPOCH":303,"BSTAR":0.00088248605,"MEAN_MOTION_DOT":0.00178126,"MEAN_MOTION_DDOT":0},{"OBJECT_NAME":"STARLINK-37084","OBJECT_ID":"2026-054Y","EPOCH":"2026-04-05T14:33:12.324096","MEAN_MOTION":15.80938113,"ECCENTRICITY":0.00023157,"INCLINATION":53.1585,"RA_OF_ASC_NODE":177.5778,"ARG_OF_PERICENTER":43.0911,"MEAN_ANOMALY":317.0293,"EPHEMERIS_TYPE":0,"CLASSIFICATION_TYPE":"U","NORAD_CAT_ID":68254,"ELEMENT_SET_NO":999,"REV_AT_EPOCH":303,"BSTAR":0.00031979638,"MEAN_MOTION_DOT":0.00063076,"MEAN_MOTION_DDOT":0},{"OBJECT_NAME":"STARLINK-37075","OBJECT_ID":"2026-054Z","EPOCH":"2026-04-05T14:34:16.216032","MEAN_MOTION":15.80982642,"ECCENTRICITY":0.00013097,"INCLINATION":53.1584,"RA_OF_ASC_NODE":177.5824,"ARG_OF_PERICENTER":86.7019,"MEAN_ANOMALY":273.4153,"EPHEMERIS_TYPE":0,"CLASSIFICATION_TYPE":"U","NORAD_CAT_ID":68255,"ELEMENT_SET_NO":999,"REV_AT_EPOCH":303,"BSTAR":0.00083517437,"MEAN_MOTION_DOT":0.00168236,"MEAN_MOTION_DDOT":0},{"OBJECT_NAME":"STARLINK-36333","OBJECT_ID":"2026-054AA","EPOCH":"2026-04-05T14:32:07.381536","MEAN_MOTION":15.81000474,"ECCENTRICITY":0.00017811,"INCLINATION":53.1581,"RA_OF_ASC_NODE":177.5728,"ARG_OF_PERICENTER":38.7467,"MEAN_ANOMALY":321.3683,"EPHEMERIS_TYPE":0,"CLASSIFICATION_TYPE":"U","NORAD_CAT_ID":68256,"ELEMENT_SET_NO":999,"REV_AT_EPOCH":303,"BSTAR":0.0012244529,"MEAN_MOTION_DOT":0.00249545,"MEAN_MOTION_DDOT":0},{"OBJECT_NAME":"STARLINK-36745","OBJECT_ID":"2026-054AB","EPOCH":"2026-04-05T13:31:27.524928","MEAN_MOTION":15.75292739,"ECCENTRICITY":0.00019915,"INCLINATION":53.1579,"RA_OF_ASC_NODE":178.029,"ARG_OF_PERICENTER":39.3339,"MEAN_ANOMALY":320.7825,"EPHEMERIS_TYPE":0,"CLASSIFICATION_TYPE":"U","NORAD_CAT_ID":68257,"ELEMENT_SET_NO":999,"REV_AT_EPOCH":302,"BSTAR":0.00057089769,"MEAN_MOTION_DOT":0.00087997,"MEAN_MOTION_DDOT":0},{"OBJECT_NAME":"STARLINK-36890","OBJECT_ID":"2026-054AC","EPOCH":"2026-04-05T14:28:53.024736","MEAN_MOTION":15.8093777,"ECCENTRICITY":0.00014677,"INCLINATION":53.1582,"RA_OF_ASC_NODE":177.557,"ARG_OF_PERICENTER":74.6687,"MEAN_ANOMALY":285.4498,"EPHEMERIS_TYPE":0,"CLASSIFICATION_TYPE":"U","NORAD_CAT_ID":68258,"ELEMENT_SET_NO":999,"REV_AT_EPOCH":303,"BSTAR":0.0003626765,"MEAN_MOTION_DOT":0.00071694,"MEAN_MOTION_DDOT":0},{"OBJECT_NAME":"STARLINK-36323","OBJECT_ID":"2026-054AD","EPOCH":"2026-04-05T14:00:03.000384","MEAN_MOTION":15.75214969,"ECCENTRICITY":0.000124,"INCLINATION":53.1592,"RA_OF_ASC_NODE":177.7174,"ARG_OF_PERICENTER":76.1918,"MEAN_ANOMALY":141.4908,"EPHEMERIS_TYPE":0,"CLASSIFICATION_TYPE":"U","NORAD_CAT_ID":68259,"ELEMENT_SET_NO":999,"REV_AT_EPOCH":427,"BSTAR":0.00020572619,"MEAN_MOTION_DOT":0.00030978,"MEAN_MOTION_DDOT":0},{"OBJECT_NAME":"STARLINK-37056","OBJECT_ID":"2026-054AE","EPOCH":"2026-04-05T14:27:48.363840","MEAN_MOTION":15.80946317,"ECCENTRICITY":0.00019387,"INCLINATION":53.1581,"RA_OF_ASC_NODE":177.5516,"ARG_OF_PERICENTER":67.7542,"MEAN_ANOMALY":292.3686,"EPHEMERIS_TYPE":0,"CLASSIFICATION_TYPE":"U","NORAD_CAT_ID":68260,"ELEMENT_SET_NO":999,"REV_AT_EPOCH":303,"BSTAR":0.0004900377,"MEAN_MOTION_DOT":0.00097451,"MEAN_MOTION_DDOT":0}]
