STARLINK-36247          
1 68245U 26054P   26095.55142539  .00091810  00000+0  46200-3 0  9991
2 68245  53.1583 177.9502 0001318  65.1216 294.9944 15.80955526  3029
STARLINK-37043          
1 68246U 26054Q   26095.54992542  .00187761  00000+0  93001-3 0  9990
2 68246  53.1583 177.9398 0001487  77.7091 282.4098 15.80972414  3027
STARLINK-37044          
1 68247U 26054R   26095.61315013  .00513495  00000+0  24103-2 0  9994
2 68247  53.1581 177.6228 0001719  35.1642 324.9495 15.81260472  3032
STARLINK-36997          
1 68248U 26054S   26095.57680312  .00090327  00000+0  58558-3 0  9993
2 68248  53.1589 178.1183 0001797  56.4570 303.6621 15.75299408  3027
STARLINK-37141          
1 68249U 26054T   26095.56318420  .00109874  00000+0  70961-3 0  9991
2 68249  53.1578 178.0279 0001312  57.7872 302.3276 15.75304807  3025
STARLINK-37087          
1 68250U 26054U   26095.56805243  .00123977  00000+0  79886-3 0  9992
2 68250  53.1578 178.0601 0001895  42.2465 317.8701 15.75303354  3029
STARLINK-36274          
1 68251U 26054V   26095.57258839  .00104007  00000+0  67258-3 0  9990
2 68251  53.1583 178.0904 0001308 126.5720 233.5421 15.75298809  3022
STARLINK-37085          
1 68252U 26054W   26095.60864146  .00145435  00000+0  72496-3 0  9999
2 68252  53.1585 177.5924 0001107  93.4211 266.6938 15.80965107  3034
STARLINK-37086          
1 68253U 26054X   26095.60788956  .00178126  00000+0  88249-3 0  9990
2 68253  53.1582 177.5876 0001058  89.7781 270.3363 15.80996567  3031
STARLINK-37084          
1 68254U 26054Y   26095.60639264  .00063076  00000+0  31980-3 0  9995
2 68254  53.1585 177.5778 0002315  43.0911 317.0293 15.80938113  3035
STARLINK-37075          
1 68255U 26054Z   26095.60713213  .00168236  00000+0  83517-3 0  9990
2 68255  53.1584 177.5824 0001309  86.7019 273.4153 15.80982642  3038
STARLINK-36333          
1 68256U 26054AA  26095.60564099  .00249545  00000+0  12245-2 0  9999
2 68256  53.1581 177.5728 0001781  38.7467 321.3683 15.81000474  3033
STARLINK-36745          
1 68257U 26054AB  26095.56351302  .00087997  00000+0  57090-3 0  9995
2 68257  53.1579 178.0290 0001991  39.3339 320.7825 15.75292739  3029
STARLINK-36890          
1 68258U 26054AC  26095.60339149  .00071694  00000+0  36268-3 0  9997
2 68258  53.1582 177.5570 0001467  74.6687 285.4498 15.80937770  3036
STARLINK-36323          
1 68259U 26054AD  26095.58336806  .00030978  00000+0  20573-3 0  9994
2 68259  53.1592 177.7174 0001240  76.1918 141.4908 15.75214969  4279
STARLINK-37056          
1 68260U 26054AE  26095.60264310  .00097451  00000+0  49004-3 0  9998
2 68260  53.1581 177.5516 0001938  67.7542 292.3686 15.80946317  3037
